STARLINK-33921          
1 65934U 25225AA  26197.25098768  .00012906  00000+0  44709-3 0  9997
2 65934  53.1599 288.3637 0001490  80.3889 279.7280 15.30200480 43205
STARLINK-35155          
1 65935U 25225AB  26197.28100614  .00010494  00000+0  32125-3 0  9994
2 65935  53.1573 287.1376 0001298 103.1371 256.9776 15.34401798 43229
STARLINK-35161          
1 65936U 25225AC  26197.22428660  .00010338  00000+0  31668-3 0  9991
2 65936  53.1591 287.4964 0001389 104.6591 255.4566 15.34399841 43212
STARLINK-35473          
1 65937U 25225AD  26197.24322380  .00009921  00000+0  30434-3 0  9992
2 65937  53.1593 287.6136 0001317  70.0663 290.0482 15.34402418 43212
2025-226A               
1 65938U 25226A   26194.68058719  .00004211  00000+0  21751-3 0  9990
2 65938  97.6445 275.3460 0014469  60.7207 299.5470 15.16773350 41718
2025-226B               
1 65939U 25226B   26197.21282145  .00001565  00000+0  10278-3 0  9996
2 65939  97.6391 275.6758 0013327  53.8681 306.3779 15.09057699 41951
2025-226C               
1 65940U 25226C   26194.66766179  .00004046  00000+0  21195-3 0  9995
2 65940  97.6352 274.8810 0014081  53.5704 306.6824 15.16304714 41697
SHIYAN-31               
1 65945U 25227A   26196.69781388  .00004022  00000+0  16649-3 0  9997
2 65945  80.0035  96.5307 0011113  88.7321 271.5181 15.23718608 41891
KUIPER-00101            
1 65947U 25228A   26197.27216882  .00001453  00000+0  21955-3 0  9998
2 65947  51.8976 151.9621 0000688  77.4036 282.7003 14.79933499 42278
KUIPER-00113            
1 65948U 25228B   26197.24380338 -.00000075  00000+0  19187-4 0  9999
2 65948  51.8991 147.1078 0000794  65.8493 294.2553 14.79929497 42333
KUIPER-00117            
1 65949U 25228C   26197.27486584  .00001396  00000+0  21202-3 0  9999
2 65949  51.8978 149.4700 0000766  71.8162 288.2884 14.79941103 42300
KUIPER-00121            
1 65950U 25228D   26197.04389498 -.00001484  00000+0 -16570-3 0  9994
2 65950  51.9000 145.4998 0000759 123.8104 236.2930 14.79940444 42346
KUIPER-00122            
1 65951U 25228E   26197.16817449 -.00000119  00000+0  13446-4 0  9993
2 65951  51.8998 154.9270 0000719  70.0939 290.0101 14.79928370 42224
KUIPER-00123            
1 65952U 25228F   26197.26947732  .00001328  00000+0  20321-3 0  9995
2 65952  51.8983 154.4923 0000759  62.2877 297.8163 14.79933436 42230
KUIPER-00124            
1 65953U 25228G   26197.27756142  .00001367  00000+0  20822-3 0  9999
2 65953  51.8979 146.9450 0000729  78.5611 281.5433 14.79933478 42348
KUIPER-00125            
1 65954U 25228H   26197.22622589 -.00000708  00000+0 -63911-4 0  9999
2 65954  51.9016 132.2150 0000963  78.3554 281.7517 14.79928837 42541
KUIPER-00126            
1 65955U 25228J   26197.23840733  .00001480  00000+0  22311-3 0  9998
2 65955  51.8997 152.1481 0000742  77.2372 282.8673 14.79933210 42263
KUIPER-00127            
1 65956U 25228K   26197.29714779  .00001541  00000+0  23113-3 0  9994
2 65956  51.9008 144.3600 0000904  76.2031 283.9032 14.79938021 42384
KUIPER-00128            
1 65957U 25228L   26197.28027314  .00001500  00000+0  22567-3 0  9993
2 65957  51.9010 144.4996 0000721  76.3370 283.7672 14.79933957 42371
KUIPER-00129            
1 65958U 25228M   26197.25189989  .00001451  00000+0  21931-3 0  9997
2 65958  51.9000 139.6063 0000649  91.2670 268.8367 14.79931309 42442
KUIPER-00130            
1 65959U 25228N   26197.21542468 -.00000008  00000+0  27905-4 0  9995
2 65959  51.9022 142.3019 0000704  88.6103 271.4940 14.79926727 32693
KUIPER-00134            
1 65960U 25228P   26197.04562535  .00012537  00000+0  29979-3 0  9996
2 65960  51.8707  56.8964 0006700  56.8466 303.3164 15.41845043 43576
KUIPER-00135            
1 65961U 25228Q   26197.24921661 -.00000166  00000+0  72460-5 0  9999
2 65961  51.9016 142.2057 0000857  82.5655 277.5404 14.79929755 42400
KUIPER-00136            
1 65962U 25228R   26197.21813368  .00000253  00000+0  62255-4 0  9997
2 65962  51.9007 139.7980 0000825  76.2234 283.8820 14.79929045 42432
KUIPER-00137            
1 65963U 25228S   26197.22068056  .00001011  00000+0  16173-3 0  9995
2 65963  51.9027 137.2801 0000921  80.0332 280.0734 14.79891481 42478
KUIPER-00138            
1 65964U 25228T   26197.18974187  .00001266  00000+0  19505-3 0  9996
2 65964  51.8979 134.8493 0000976  46.4697 313.6347 14.79933520 42502
KUIPER-00140            
1 65965U 25228U   26197.05200014  .00000292  00000+0  67371-4 0  9997
2 65965  51.8985 138.0439 0000749  81.6655 278.4392 14.79925555 42449
KUIPER-00141            
1 65966U 25228V   26197.25999900  .00000389  00000+0  80064-4 0  9990
2 65966  51.9027 132.1805 0000943  86.0445 274.0625 14.79933107 42546
KUIPER-00146            
1 65967U 25228W   26197.22350511 -.00002788  00000+0 -33686-3 0  9991
2 65967  51.9029 134.8532 0000819  78.2265 281.8789 14.79932004 42508
KUIPER-00149            
1 65968U 25228X   26197.19517394  .00001742  00000+0  25744-3 0  9995
2 65968  51.9013 129.8629 0000929  87.6927 272.4141 14.79932506 42576
