OBJECT_NAME,OBJECT_ID,EPOCH,MEAN_MOTION,ECCENTRICITY,INCLINATION,RA_OF_ASC_NODE,ARG_OF_PERICENTER,MEAN_ANOMALY,EPHEMERIS_TYPE,CLASSIFICATION_TYPE,NORAD_CAT_ID,ELEMENT_SET_NO,REV_AT_EPOCH,BSTAR,MEAN_MOTION_DOT,MEAN_MOTION_DDOT
STARLINK-33921,2025-225AA,2026-07-16T06:01:25.335552,15.30200480,.00014904,53.1599,288.3637,80.3889,279.7280,0,U,65934,999,4320,.44709307E-3,.12906E-3,0
STARLINK-35155,2025-225AB,2026-07-16T06:44:38.930496,15.34401798,.00012985,53.1573,287.1376,103.1371,256.9776,0,U,65935,999,4322,.32125426E-3,.10494E-3,0
STARLINK-35161,2025-225AC,2026-07-16T05:22:58.362240,15.34399841,.00013894,53.1591,287.4964,104.6591,255.4566,0,U,65936,999,4321,.31668371E-3,.10338E-3,0
STARLINK-35473,2025-225AD,2026-07-16T05:50:14.536320,15.34402418,.00013174,53.1593,287.6136,70.0663,290.0482,0,U,65937,999,4321,.30433868E-3,.9921E-4,0
2025-226A,2025-226A,2026-07-13T16:20:02.733216,15.16773350,.00144693,97.6445,275.3460,60.7207,299.5470,0,U,65938,999,4171,.21750741E-3,.4211E-4,0
2025-226B,2025-226B,2026-07-16T05:06:27.773280,15.09057699,.00133273,97.6391,275.6758,53.8681,306.3779,0,U,65939,999,4195,.10277819E-3,.1565E-4,0
2025-226C,2025-226C,2026-07-13T16:01:25.978656,15.16304714,.00140814,97.6352,274.8810,53.5704,306.6824,0,U,65940,999,4169,.21194505E-3,.4046E-4,0
SHIYAN-31,2025-227A,2026-07-15T16:44:51.119232,15.23718608,.00111133,80.0035,96.5307,88.7321,271.5181,0,U,65945,999,4189,.16649011E-3,.4022E-4,0
KUIPER-00101,2025-228A,2026-07-16T06:31:55.386048,14.79933499,.0000688,51.8976,151.9621,77.4036,282.7003,0,U,65947,999,4227,.21955017E-3,.1453E-4,0
KUIPER-00113,2025-228B,2026-07-16T05:51:04.612032,14.79929497,.0000794,51.8991,147.1078,65.8493,294.2553,0,U,65948,999,4233,.19187216E-4,-.75E-6,0
KUIPER-00117,2025-228C,2026-07-16T06:35:48.408576,14.79941103,.00007669,51.8978,149.4700,71.8162,288.2884,0,U,65949,999,4230,.21202497E-3,.1396E-4,0
KUIPER-00121,2025-228D,2026-07-16T01:03:12.526272,14.79940444,.00007599,51.9000,145.4998,123.8104,236.2930,0,U,65950,999,4234,-.16570345E-3,-.1484E-4,0
KUIPER-00122,2025-228E,2026-07-16T04:02:10.275936,14.79928370,.00007198,51.8998,154.9270,70.0939,290.0101,0,U,65951,999,4222,.1344566E-4,-.119E-5,0
KUIPER-00123,2025-228F,2026-07-16T06:28:02.840448,14.79933436,.00007598,51.8983,154.4923,62.2877,297.8163,0,U,65952,999,4223,.20320921E-3,.1328E-4,0
KUIPER-00124,2025-228G,2026-07-16T06:39:41.306688,14.79933478,.00007295,51.8979,146.9450,78.5611,281.5433,0,U,65953,999,4234,.20822248E-3,.1367E-4,0
KUIPER-00125,2025-228H,2026-07-16T05:25:45.916896,14.79928837,.00009638,51.9016,132.2150,78.3554,281.7517,0,U,65954,999,4254,-.63911286E-4,-.708E-5,0
KUIPER-00126,2025-228J,2026-07-16T05:43:18.393312,14.79933210,.00007423,51.8997,152.1481,77.2372,282.8673,0,U,65955,999,4226,.22311464E-3,.148E-4,0
KUIPER-00127,2025-228K,2026-07-16T07:07:53.569056,14.79938021,.00009043,51.9008,144.3600,76.2031,283.9032,0,U,65956,999,4238,.23113225E-3,.1541E-4,0
KUIPER-00128,2025-228L,2026-07-16T06:43:35.599296,14.79933957,.00007212,51.9010,144.4996,76.3370,283.7672,0,U,65957,999,4237,.22566718E-3,.15E-4,0
KUIPER-00129,2025-228M,2026-07-16T06:02:44.150496,14.79931309,.00006497,51.9000,139.6063,91.2670,268.8367,0,U,65958,999,4244,.21931374E-3,.1451E-4,0
KUIPER-00130,2025-228N,2026-07-16T05:10:12.692352,14.79926727,.0000704,51.9022,142.3019,88.6103,271.4940,0,U,65959,999,3269,.27904754E-4,-.8E-7,0
KUIPER-00134,2025-228P,2026-07-16T01:05:42.030240,15.41845043,.00067005,51.8707,56.8964,56.8466,303.3164,0,U,65960,999,4357,.29979055E-3,.12537E-3,0
KUIPER-00135,2025-228Q,2026-07-16T05:58:52.315104,14.79929755,.00008573,51.9016,142.2057,82.5655,277.5404,0,U,65961,999,4240,.7246047E-5,-.166E-5,0
KUIPER-00136,2025-228R,2026-07-16T05:14:06.749952,14.79929045,.00008257,51.9007,139.7980,76.2234,283.8820,0,U,65962,999,4243,.62255439E-4,.253E-5,0
KUIPER-00137,2025-228S,2026-07-16T05:17:46.800384,14.79891481,.00009219,51.9027,137.2801,80.0332,280.0734,0,U,65963,999,4247,.16172941E-3,.1011E-4,0
KUIPER-00138,2025-228T,2026-07-16T04:33:13.697568,14.79933520,.0000976,51.8979,134.8493,46.4697,313.6347,0,U,65964,999,4250,.19505249E-3,.1266E-4,0
KUIPER-00140,2025-228U,2026-07-16T01:14:52.812096,14.79925555,.00007497,51.8985,138.0439,81.6655,278.4392,0,U,65965,999,4244,.67371404E-4,.292E-5,0
KUIPER-00141,2025-228V,2026-07-16T06:14:23.913600,14.79933107,.00009433,51.9027,132.1805,86.0445,274.0625,0,U,65966,999,4254,.80064154E-4,.389E-5,0
KUIPER-00146,2025-228W,2026-07-16T05:21:50.841504,14.79932004,.00008196,51.9029,134.8532,78.2265,281.8789,0,U,65967,999,4250,-.33686327E-3,-.2788E-4,0
KUIPER-00149,2025-228X,2026-07-16T04:41:03.028416,14.79932506,.00009295,51.9013,129.8629,87.6927,272.4141,0,U,65968,999,4257,.25743708E-3,.1742E-4,0
